OBJECT_NAME,OBJECT_ID,EPOCH,MEAN_MOTION,ECCENTRICITY,INCLINATION,RA_OF_ASC_NODE,ARG_OF_PERICENTER,MEAN_ANOMALY,EPHEMERIS_TYPE,CLASSIFICATION_TYPE,NORAD_CAT_ID,ELEMENT_SET_NO,REV_AT_EPOCH,BSTAR,MEAN_MOTION_DOT,MEAN_MOTION_DDOT
STARLINK-37998,2026-145C,2026-07-06T18:00:02.998944,15.75237775,.0001317,97.2849,34.1797,85.6683,65.9335,0,U,69679,999,307,-.11562E-2,-.169561E-2,0
STARLINK-37994,2026-145D,2026-07-06T18:00:02.998944,15.75218950,.0001315,97.2853,34.1770,85.4553,58.1520,0,U,69680,999,307,-.6339E-3,-.93767E-3,0
STARLINK-37992,2026-145E,2026-07-06T18:00:02.998944,15.75186868,.0001559,97.2850,34.1778,88.2610,57.3516,0,U,69681,999,307,-.1107E-2,-.16214E-2,0
STARLINK-37997,2026-145F,2026-07-06T18:00:02.998944,15.75221434,.0001475,97.2851,34.1797,109.7147,39.8913,0,U,69682,999,307,-.7007E-3,-.10353E-2,0
STARLINK-37990,2026-145G,2026-07-06T18:00:02.998944,15.75268881,.0001353,97.2850,34.1779,99.3057,48.2903,0,U,69683,999,307,-.14715E-2,-.21493E-2,0
STARLINK-37951,2026-145H,2026-07-06T18:00:02.998944,15.75225142,.0001528,97.2849,34.1810,104.2588,49.3440,0,U,69684,999,307,-.64334E-3,-.95174E-3,0
STARLINK-37957,2026-145J,2026-07-06T18:00:02.998944,15.75221792,.0001438,97.2847,34.1836,103.2843,56.3175,0,U,69685,999,307,-.69618E-3,-.102872E-2,0
STARLINK-37968,2026-145K,2026-07-06T18:00:02.998944,15.75223765,.0001442,97.2851,34.1989,114.3971,79.1979,0,U,69686,999,307,-.58602E-3,-.86784E-3,0
STARLINK-37977,2026-145L,2026-07-06T18:00:02.998944,15.75216622,.0001307,97.2855,34.1999,130.8083,66.7926,0,U,69687,999,307,-.56135E-3,-.83145E-3,0
STARLINK-37908,2026-145M,2026-07-06T18:00:02.998944,15.75222176,.0000641,97.2854,34.2059,84.3001,125.2982,0,U,69688,999,307,-.59073E-3,-.87461E-3,0
STARLINK-37979,2026-145N,2026-07-06T18:00:02.998944,15.75247801,.0001464,97.2851,34.2053,88.9863,122.6073,0,U,69689,999,307,-.13153E-2,-.19245E-2,0
STARLINK-37940,2026-145P,2026-07-06T18:00:02.998944,15.75221442,.0002116,97.2854,34.2089,114.7841,102.8126,0,U,69690,999,307,-.65955E-3,-.97535E-3,0
STARLINK-37961,2026-145Q,2026-07-06T18:00:02.998944,15.75251403,.000129,97.2851,34.2167,100.4571,135.1273,0,U,69691,999,307,-.11946E-2,-.175178E-2,0
STARLINK-37787,2026-145R,2026-07-06T18:00:02.998944,15.75196456,.0001314,97.2853,34.2218,62.7290,184.8653,0,U,69692,999,307,-.32597E-3,-.48489E-3,0
STARLINK-37962,2026-145S,2026-07-06T18:00:02.998944,15.75215041,.0001445,97.2852,34.2265,94.2950,163.2951,0,U,69693,999,307,-.58778E-3,-.8701E-3,0
STARLINK-37953,2026-145T,2026-07-06T18:00:02.998944,15.75232978,.0001303,97.2854,34.2190,97.8773,143.7099,0,U,69694,999,307,-.61025E-3,-.90364E-3,0
STARLINK-37926,2026-145U,2026-07-06T18:00:02.998944,15.75234765,.0001591,97.2852,34.2218,125.9002,119.6887,0,U,69695,999,307,-.10281E-2,-.151098E-2,0
STARLINK-37959,2026-145V,2026-07-06T18:00:02.998944,15.75201622,.0001121,97.2852,34.2234,108.0494,143.5391,0,U,69696,999,307,-.27848E-3,-.41486E-3,0
STARLINK-37976,2026-145W,2026-07-06T18:00:02.998944,15.75199826,.0001139,97.2853,34.2307,80.2107,187.3819,0,U,69697,999,307,-.45966E-3,-.68174E-3,0
STARLINK-37912,2026-145X,2026-07-06T18:00:02.998944,15.75212644,.0001138,97.2854,34.2337,70.8902,202.8253,0,U,69698,999,307,-.13447E-2,-.196352E-2,0
STARLINK-37974,2026-145Y,2026-07-06T18:00:02.998944,15.75200870,.0001307,97.2855,34.2348,77.3868,200.2061,0,U,69699,999,307,-.4933E-3,-.73116E-3,0
STARLINK-37955,2026-145Z,2026-07-06T18:00:02.998944,15.75197196,.000093,97.2859,34.2415,82.1794,209.4117,0,U,69700,999,307,-.35456E-3,-.52704E-3,0
STRIX-8,2026-146A,2026-07-06T18:53:38.253120,15.04385450,.0008549,41.9896,59.6678,328.2246,31.8064,0,U,69701,999,151,.27987E-3,.3786E-4,0
STARLINK-38055,2026-147A,2026-07-06T18:00:02.998944,15.80878000,.0001293,97.2835,223.6464,96.3988,262.9891,0,U,69704,999,238,-.722E-3,-.136685E-2,0
STARLINK-37898,2026-147B,2026-07-06T18:00:02.998944,15.80828716,.0001024,97.2838,223.6501,99.9515,264.1293,0,U,69705,999,238,-.36381E-4,-.7109E-4,0
STARLINK-37970,2026-147C,2026-07-06T18:00:02.998944,15.80839970,.0001457,97.2838,223.6518,96.8600,271.4923,0,U,69706,999,238,-.18543E-3,-.35556E-3,0
STARLINK-37975,2026-147D,2026-07-06T18:00:02.998944,15.80895942,.0000922,97.2837,223.6527,98.6297,273.9782,0,U,69707,999,238,-.78988E-3,-.149421E-2,0
STARLINK-37972,2026-147E,2026-07-06T18:00:02.998944,15.80837442,.0000605,97.2840,223.6549,81.3598,295.5375,0,U,69708,999,238,-.34038E-4,-.6663E-4,0
